EUTELSAT 8 WEST B       
1 40875U 15039B   25326.72760854 -.00000044  00000+0  00000+0 0  9996
2 40875   0.0667 356.9189 0004206 249.2198  69.7809  1.00271344 37587
EUTELSAT 9B             
1 41310U 16005A   25326.73098858  .00000083  00000+0  00000+0 0  9996
2 41310   0.0802  79.0625 0004321 181.7602  73.3091  1.00273154 36044
EUTELSAT 65 WEST A      
1 41382U 16014A   25326.71616847 -.00000255  00000+0  00000+0 0  9999
2 41382   0.0577  19.6202 0002468 229.9026   5.0720  1.00270554 35465
EUTELSAT 117 WEST B     
1 41589U 16038B   25325.63586161  .00000011  00000+0  00000+0 0  9998
2 41589   0.0092 154.0473 0000134  60.9075 317.8661  1.00267678 34588
EUTELSAT 172B           
1 42741U 17029B   25325.76447571  .00000017  00000+0  00000+0 0  9991
2 42741   0.0131 180.8105 0000272 233.1936  94.2411  1.00273206 31653
EUTELSAT 7C             
1 44334U 19034B   25326.15983274  .00000070  00000+0  00000+0 0  9997
2 44334   0.0751 182.8587 0002971  36.0123 267.1179  1.00270972  4764
EUTELSAT 5 WEST B       
1 44624U 19067A   25326.72821522 -.00000021  00000+0  00000+0 0  9992
2 44624   0.0688 331.6914 0003106 268.6714  78.7842  1.00271357 22360
EUTELSAT KONNECT        
1 45027U 20005B   25326.16641775  .00000071  00000+0  00000+0 0  9996
2 45027   0.0671  99.7201 0001405 203.1623 185.6431  1.00270257 22252
